STARLINK-1780_new
1 16684C 20073Q   21326.13855572  .00006004  00000-0  40226-3 0  3261
2 16684  53.0528  83.1224 0001229  81.2975 335.2675 15.06392750    19
STARLINK-1780_old
1 26684C 20073Q   21325.14356381  .00004150  00000-0  27815-3 0  3253
2 26684  53.0524  87.5890 0001246  84.4600 333.2781 15.06382508    17
